ONEWEB-0377             
1 49303U 21090AA  23341.22917563  .00000053  00000+0  97584-4 0  9993
2 49303  87.9182  98.1670 0001948 110.8234 249.3108 13.20772598109964
ONEWEB-0378             
1 49304U 21090AB  23340.35894313  .00002914  00000+0  71286-2 0  9991
2 49304  87.9193  98.3458 0002852 118.1123 242.0299 13.20797619107832
ONEWEB-0379             
1 49305U 21090AC  23341.41417405 -.00000377  00000+0 -10502-2 0  9990
2 49305  87.8953 113.3878 0001394 100.3571 259.7716 13.14503308107630
ONEWEB-0380             
1 49306U 21090AD  23341.49475546 -.00000053  00000+0 -16473-3 0  9994
2 49306  87.9180 128.6308 0001694  97.5594 262.5731 13.19724972106002
ONEWEB-0381             
1 49307U 21090AE  23341.44148760  .00012777  00000+0  31294-1 0  9995
2 49307  87.9245  98.1152 0001696 102.5246 257.6077 13.20887812109327
ONEWEB-0382             
1 49308U 21090AF  23341.42887766  .00013113  00000+0  32121-1 0  9995
2 49308  87.9200  98.1290 0001781  76.9687 283.1645 13.20879525109327
ONEWEB-0383             
1 49309U 21090AG  23340.79889590 -.00000868  00000+0 -23746-2 0  9991
2 49309  87.8965 113.4999 0001641 101.2411 258.8904 13.14504911106280
ONEWEB-0384             
1 49310U 21090AH  23341.34907863  .00000025  00000+0  28851-4 0  9996
2 49310  87.9188  98.1467 0002080  97.1796 262.9573 13.20771513109323
