<?xml version="1.0" encoding="UTF-8"?>
<ndm xmlns:xsi="http://www.w3.org/2001/XMLSchema-instance" xsi:noNamespaceSchemaLocation="https://sanaregistry.org/r/ndmxml_unqualified/ndmxml-2.0.0-master-2.0.xsd">
<omm id="CCSDS_OMM_VERS" version="2.0">
<header><CREATION_DATE/><ORIGINATOR/></header><body><segment><metadata><OBJECT_NAME>ONEWEB-0377</OBJECT_NAME><OBJECT_ID>2021-090AA</OBJECT_ID><CENTER_NAME>EARTH</CENTER_NAME><REF_FRAME>TEME</REF_FRAME><TIME_SYSTEM>UTC</TIME_SYSTEM><MEAN_ELEMENT_THEORY>SGP4</MEAN_ELEMENT_THEORY></metadata><data><meanElements><EPOCH>2023-12-07T05:30:00.774432</EPOCH><MEAN_MOTION>13.20772598</MEAN_MOTION><ECCENTRICITY>.0001948</ECCENTRICITY><INCLINATION>87.9182</INCLINATION><RA_OF_ASC_NODE>98.1670</RA_OF_ASC_NODE><ARG_OF_PERICENTER>110.8234</ARG_OF_PERICENTER><MEAN_ANOMALY>249.3108</MEAN_ANOMALY></meanElements><tleParameters><EPHEMERIS_TYPE>0</EPHEMERIS_TYPE><CLASSIFICATION_TYPE>U</CLASSIFICATION_TYPE><NORAD_CAT_ID>49303</NORAD_CAT_ID><ELEMENT_SET_NO>999</ELEMENT_SET_NO><REV_AT_EPOCH>10996</REV_AT_EPOCH><BSTAR>.97584E-4</BSTAR><MEAN_MOTION_DOT>.53E-6</MEAN_MOTION_DOT><MEAN_MOTION_DDOT>0</MEAN_MOTION_DDOT></tleParameters></data></segment></body></omm>
<omm id="CCSDS_OMM_VERS" version="2.0">
<header><CREATION_DATE/><ORIGINATOR/></header><body><segment><metadata><OBJECT_NAME>ONEWEB-0378</OBJECT_NAME><OBJECT_ID>2021-090AB</OBJECT_ID><CENTER_NAME>EARTH</CENTER_NAME><REF_FRAME>TEME</REF_FRAME><TIME_SYSTEM>UTC</TIME_SYSTEM><MEAN_ELEMENT_THEORY>SGP4</MEAN_ELEMENT_THEORY></metadata><data><meanElements><EPOCH>2023-12-06T08:36:52.686432</EPOCH><MEAN_MOTION>13.20797619</MEAN_MOTION><ECCENTRICITY>.0002852</ECCENTRICITY><INCLINATION>87.9193</INCLINATION><RA_OF_ASC_NODE>98.3458</RA_OF_ASC_NODE><ARG_OF_PERICENTER>118.1123</ARG_OF_PERICENTER><MEAN_ANOMALY>242.0299</MEAN_ANOMALY></meanElements><tleParameters><EPHEMERIS_TYPE>0</EPHEMERIS_TYPE><CLASSIFICATION_TYPE>U</CLASSIFICATION_TYPE><NORAD_CAT_ID>49304</NORAD_CAT_ID><ELEMENT_SET_NO>999</ELEMENT_SET_NO><REV_AT_EPOCH>10783</REV_AT_EPOCH><BSTAR>.71286E-2</BSTAR><MEAN_MOTION_DOT>.2914E-4</MEAN_MOTION_DOT><MEAN_MOTION_DDOT>0</MEAN_MOTION_DDOT></tleParameters></data></segment></body></omm>
<omm id="CCSDS_OMM_VERS" version="2.0">
<header><CREATION_DATE/><ORIGINATOR/></header><body><segment><metadata><OBJECT_NAME>ONEWEB-0379</OBJECT_NAME><OBJECT_ID>2021-090AC</OBJECT_ID><CENTER_NAME>EARTH</CENTER_NAME><REF_FRAME>TEME</REF_FRAME><TIME_SYSTEM>UTC</TIME_SYSTEM><MEAN_ELEMENT_THEORY>SGP4</MEAN_ELEMENT_THEORY></metadata><data><meanElements><EPOCH>2023-12-07T09:56:24.637920</EPOCH><MEAN_MOTION>13.14503308</MEAN_MOTION><ECCENTRICITY>.0001394</ECCENTRICITY><INCLINATION>87.8953</INCLINATION><RA_OF_ASC_NODE>113.3878</RA_OF_ASC_NODE><ARG_OF_PERICENTER>100.3571</ARG_OF_PERICENTER><MEAN_ANOMALY>259.7716</MEAN_ANOMALY></meanElements><tleParameters><EPHEMERIS_TYPE>0</EPHEMERIS_TYPE><CLASSIFICATION_TYPE>U</CLASSIFICATION_TYPE><NORAD_CAT_ID>49305</NORAD_CAT_ID><ELEMENT_SET_NO>999</ELEMENT_SET_NO><REV_AT_EPOCH>10763</REV_AT_EPOCH><BSTAR>-.10502E-2</BSTAR><MEAN_MOTION_DOT>-.377E-5</MEAN_MOTION_DOT><MEAN_MOTION_DDOT>0</MEAN_MOTION_DDOT></tleParameters></data></segment></body></omm>
<omm id="CCSDS_OMM_VERS" version="2.0">
<header><CREATION_DATE/><ORIGINATOR/></header><body><segment><metadata><OBJECT_NAME>ONEWEB-0380</OBJECT_NAME><OBJECT_ID>2021-090AD</OBJECT_ID><CENTER_NAME>EARTH</CENTER_NAME><REF_FRAME>TEME</REF_FRAME><TIME_SYSTEM>UTC</TIME_SYSTEM><MEAN_ELEMENT_THEORY>SGP4</MEAN_ELEMENT_THEORY></metadata><data><meanElements><EPOCH>2023-12-07T11:52:26.871744</EPOCH><MEAN_MOTION>13.19724972</MEAN_MOTION><ECCENTRICITY>.0001694</ECCENTRICITY><INCLINATION>87.9180</INCLINATION><RA_OF_ASC_NODE>128.6308</RA_OF_ASC_NODE><ARG_OF_PERICENTER>97.5594</ARG_OF_PERICENTER><MEAN_ANOMALY>262.5731</MEAN_ANOMALY></meanElements><tleParameters><EPHEMERIS_TYPE>0</EPHEMERIS_TYPE><CLASSIFICATION_TYPE>U</CLASSIFICATION_TYPE><NORAD_CAT_ID>49306</NORAD_CAT_ID><ELEMENT_SET_NO>999</ELEMENT_SET_NO><REV_AT_EPOCH>10600</REV_AT_EPOCH><BSTAR>-.16473E-3</BSTAR><MEAN_MOTION_DOT>-.53E-6</MEAN_MOTION_DOT><MEAN_MOTION_DDOT>0</MEAN_MOTION_DDOT></tleParameters></data></segment></body></omm>
<omm id="CCSDS_OMM_VERS" version="2.0">
<header><CREATION_DATE/><ORIGINATOR/></header><body><segment><metadata><OBJECT_NAME>ONEWEB-0381</OBJECT_NAME><OBJECT_ID>2021-090AE</OBJECT_ID><CENTER_NAME>EARTH</CENTER_NAME><REF_FRAME>TEME</REF_FRAME><TIME_SYSTEM>UTC</TIME_SYSTEM><MEAN_ELEMENT_THEORY>SGP4</MEAN_ELEMENT_THEORY></metadata><data><meanElements><EPOCH>2023-12-07T10:35:44.528640</EPOCH><MEAN_MOTION>13.20887812</MEAN_MOTION><ECCENTRICITY>.0001696</ECCENTRICITY><INCLINATION>87.9245</INCLINATION><RA_OF_ASC_NODE>98.1152</RA_OF_ASC_NODE><ARG_OF_PERICENTER>102.5246</ARG_OF_PERICENTER><MEAN_ANOMALY>257.6077</MEAN_ANOMALY></meanElements><tleParameters><EPHEMERIS_TYPE>0</EPHEMERIS_TYPE><CLASSIFICATION_TYPE>U</CLASSIFICATION_TYPE><NORAD_CAT_ID>49307</NORAD_CAT_ID><ELEMENT_SET_NO>999</ELEMENT_SET_NO><REV_AT_EPOCH>10932</REV_AT_EPOCH><BSTAR>.31294E-1</BSTAR><MEAN_MOTION_DOT>.12777E-3</MEAN_MOTION_DOT><MEAN_MOTION_DDOT>0</MEAN_MOTION_DDOT></tleParameters></data></segment></body></omm>
<omm id="CCSDS_OMM_VERS" version="2.0">
<header><CREATION_DATE/><ORIGINATOR/></header><body><segment><metadata><OBJECT_NAME>ONEWEB-0382</OBJECT_NAME><OBJECT_ID>2021-090AF</OBJECT_ID><CENTER_NAME>EARTH</CENTER_NAME><REF_FRAME>TEME</REF_FRAME><TIME_SYSTEM>UTC</TIME_SYSTEM><MEAN_ELEMENT_THEORY>SGP4</MEAN_ELEMENT_THEORY></metadata><data><meanElements><EPOCH>2023-12-07T10:17:35.029824</EPOCH><MEAN_MOTION>13.20879525</MEAN_MOTION><ECCENTRICITY>.0001781</ECCENTRICITY><INCLINATION>87.9200</INCLINATION><RA_OF_ASC_NODE>98.1290</RA_OF_ASC_NODE><ARG_OF_PERICENTER>76.9687</ARG_OF_PERICENTER><MEAN_ANOMALY>283.1645</MEAN_ANOMALY></meanElements><tleParameters><EPHEMERIS_TYPE>0</EPHEMERIS_TYPE><CLASSIFICATION_TYPE>U</CLASSIFICATION_TYPE><NORAD_CAT_ID>49308</NORAD_CAT_ID><ELEMENT_SET_NO>999</ELEMENT_SET_NO><REV_AT_EPOCH>10932</REV_AT_EPOCH><BSTAR>.32121E-1</BSTAR><MEAN_MOTION_DOT>.13113E-3</MEAN_MOTION_DOT><MEAN_MOTION_DDOT>0</MEAN_MOTION_DDOT></tleParameters></data></segment></body></omm>
<omm id="CCSDS_OMM_VERS" version="2.0">
<header><CREATION_DATE/><ORIGINATOR/></header><body><segment><metadata><OBJECT_NAME>ONEWEB-0383</OBJECT_NAME><OBJECT_ID>2021-090AG</OBJECT_ID><CENTER_NAME>EARTH</CENTER_NAME><REF_FRAME>TEME</REF_FRAME><TIME_SYSTEM>UTC</TIME_SYSTEM><MEAN_ELEMENT_THEORY>SGP4</MEAN_ELEMENT_THEORY></metadata><data><meanElements><EPOCH>2023-12-06T19:10:24.605760</EPOCH><MEAN_MOTION>13.14504911</MEAN_MOTION><ECCENTRICITY>.0001641</ECCENTRICITY><INCLINATION>87.8965</INCLINATION><RA_OF_ASC_NODE>113.4999</RA_OF_ASC_NODE><ARG_OF_PERICENTER>101.2411</ARG_OF_PERICENTER><MEAN_ANOMALY>258.8904</MEAN_ANOMALY></meanElements><tleParameters><EPHEMERIS_TYPE>0</EPHEMERIS_TYPE><CLASSIFICATION_TYPE>U</CLASSIFICATION_TYPE><NORAD_CAT_ID>49309</NORAD_CAT_ID><ELEMENT_SET_NO>999</ELEMENT_SET_NO><REV_AT_EPOCH>10628</REV_AT_EPOCH><BSTAR>-.23746E-2</BSTAR><MEAN_MOTION_DOT>-.868E-5</MEAN_MOTION_DOT><MEAN_MOTION_DDOT>0</MEAN_MOTION_DDOT></tleParameters></data></segment></body></omm>
<omm id="CCSDS_OMM_VERS" version="2.0">
<header><CREATION_DATE/><ORIGINATOR/></header><body><segment><metadata><OBJECT_NAME>ONEWEB-0384</OBJECT_NAME><OBJECT_ID>2021-090AH</OBJECT_ID><CENTER_NAME>EARTH</CENTER_NAME><REF_FRAME>TEME</REF_FRAME><TIME_SYSTEM>UTC</TIME_SYSTEM><MEAN_ELEMENT_THEORY>SGP4</MEAN_ELEMENT_THEORY></metadata><data><meanElements><EPOCH>2023-12-07T08:22:40.393632</EPOCH><MEAN_MOTION>13.20771513</MEAN_MOTION><ECCENTRICITY>.000208</ECCENTRICITY><INCLINATION>87.9188</INCLINATION><RA_OF_ASC_NODE>98.1467</RA_OF_ASC_NODE><ARG_OF_PERICENTER>97.1796</ARG_OF_PERICENTER><MEAN_ANOMALY>262.9573</MEAN_ANOMALY></meanElements><tleParameters><EPHEMERIS_TYPE>0</EPHEMERIS_TYPE><CLASSIFICATION_TYPE>U</CLASSIFICATION_TYPE><NORAD_CAT_ID>49310</NORAD_CAT_ID><ELEMENT_SET_NO>999</ELEMENT_SET_NO><REV_AT_EPOCH>10932</REV_AT_EPOCH><BSTAR>.28851E-4</BSTAR><MEAN_MOTION_DOT>.25E-6</MEAN_MOTION_DOT><MEAN_MOTION_DDOT>0</MEAN_MOTION_DDOT></tleParameters></data></segment></body></omm>

</ndm>
